{
    "links": {
        "self": "http://www.neowsapp.com/rest/v1/neo/3752098?api_key=iIulBulltgU6a56xZRHN4H3l9WmuAYTsLGpBGhQ2"
    },
    "id": "3752098",
    "neo_reference_id": "3752098",
    "name": "(2016 HF)",
    "designation": "2016 HF",
    "nasa_jpl_url": "http://ssd.jpl.nasa.gov/sbdb.cgi?sstr=3752098",
    "absolute_magnitude_h": 25.0,
    "estimated_diameter": {
        "kilometers": {
            "estimated_diameter_min": 0.02658,
            "estimated_diameter_max": 0.0594346868
        },
        "meters": {
            "estimated_diameter_min": 26.58,
            "estimated_diameter_max": 59.4346868419
        },
        "miles": {
            "estimated_diameter_min": 0.0165160412,
            "estimated_diameter_max": 0.0369309908
        },
        "feet": {
            "estimated_diameter_min": 87.2047272,
            "estimated_diameter_max": 194.9956979785
        }
    },
    "is_potentially_hazardous_asteroid": false,
    "close_approach_data": [
        {
            "close_approach_date": "2016-04-03",
            "close_approach_date_full": "2016-Apr-03 21:14",
            "epoch_date_close_approach": 1459718040000,
            "relative_velocity": {
                "kilometers_per_second": "5.9852516761",
                "kilometers_per_hour": "21546.9060337935",
                "miles_per_hour": "13388.4094741646"
            },
            "miss_distance": {
                "astronomical": "0.0451900918",
                "lunar": "17.5789457102",
                "kilometers": "6760341.478384466",
                "miles": "4200681.4064829908"
            },
            "orbiting_body": "Earth"
        }
    ],
    "orbital_data": {
        "orbit_id": "9",
        "orbit_determination_date": "2017-04-06 08:26:25",
        "first_observation_date": "2016-04-17",
        "last_observation_date": "2016-05-15",
        "data_arc_in_days": 28,
        "observations_used": 52,
        "orbit_uncertainty": "7",
        "minimum_orbit_intersection": ".0407321",
        "jupiter_tisserand_invariant": "3.707",
        "epoch_osculation": "2459000.5",
        "eccentricity": ".4770169937150472",
        "semi_major_axis": "1.984395601021913",
        "inclination": "2.519740736285462",
        "ascending_node_longitude": "174.875976747898",
        "orbital_period": "1021.035425097329",
        "perihelion_distance": "1.037805177081076",
        "perihelion_argument": "11.08032663844558",
        "aphelion_distance": "2.93098602496275",
        "perihelion_time": "2458497.249614329945",
        "mean_anomaly": "177.4376621888022",
        "mean_motion": ".3525832612180752",
        "equinox": "J2000",
        "orbit_class": {
            "orbit_class_type": "AMO",
            "orbit_class_description": "Near-Earth asteroid orbits similar to that of 1221 Amor",
            "orbit_class_range": "1.017 AU < q (perihelion) < 1.3 AU"
        }
    },
    "is_sentry_object": false
}